UNKNOWN                 
1 82739U          25330.41142571  .00002068  00000+0  17332-2 0  9990
2 82739  99.0841 127.3123 0173254 337.0575  52.2163 13.82620148603859
UNKNOWN                 
1 82741U          25330.29802678  .00002675  00000+0  29107-2 0  9997
2 82741 102.8470   0.4539 0200905 302.2960  55.8850 13.65908608594831
UNKNOWN                 
1 82783U          25329.13130188  .00000671  00000+0  19363-2 0  9991
2 82783  90.3403  37.6146 0026737 160.6414 199.5735 13.08985067502051
UNKNOWN                 
1 82798U          25330.43602505  .00002493  00000+0  10999-2 0  9999
2 82798  82.9514 204.8527 0028245 222.1180 315.5182 14.22807053310056
UNKNOWN                 
1 82820U          25328.68753552  .00003858  00000+0  13613-2 0  9990
2 82820  99.7886 127.0476 0048851  67.1891 293.4439 14.34749624623047
UNKNOWN                 
1 82829U          25304.50476488  .00000035  00000+0  21351-2 0  9996
2 82829  65.0944 126.2556 0168315 345.0925  42.7807 11.29112830481311
UNKNOWN                 
1 82854U          25330.02584774  .00002350  00000+0  18533-2 0  9998
2 82854  82.6889  77.7115 0125827 327.6078  31.7402 13.87690285605485
UNKNOWN                 
1 82873U          25330.17319917  .00004730  00000+0  20553-2 0  9999
2 82873  99.9947 222.0826 0041257 330.7580  29.1286 14.24230130618872
UNKNOWN                 
1 82875U          25330.21324748  .00001625  00000+0  43347-3 0  9991
2 82875  98.6719 313.9647 0377445 330.6409  27.4020 14.15096539542133
UNKNOWN                 
1 82893U          25326.12407649  .00010730  00000+0  40656-2 0  9994
2 82893  98.9640  80.5609 0024820 109.2648 251.1222 14.31133178421028
UNKNOWN                 
1 82912U          25330.38402482  .00004199  00000+0  17263-2 0  9999
2 82912  65.8357 211.9692 0777383 276.2703  75.0423 13.27527729577151
UNKNOWN                 
1 82961U          25327.40198414  .00009143  00000+0  15071-1 0  9997
2 82961  99.9197 122.8804 0375024  51.2425 312.1584 13.22819895553158
